[{"OBJECT_NAME":"STARLINK-32765","OBJECT_ID":"2025-014N","EPOCH":"2026-03-09T05:07:20.661312","MEAN_MOTION":15.27599854,"ECCENTRICITY":4.813e-5,"INCLINATION":42.998,"RA_OF_ASC_NODE":157.1578,"ARG_OF_PERICENTER":205.874,"MEAN_ANOMALY":154.2087,"EPHEMERIS_TYPE":0,"CLASSIFICATION_TYPE":"U","NORAD_CAT_ID":62747,"ELEMENT_SET_NO":999,"REV_AT_EPOCH":6318,"BSTAR":0.0014361809,"MEAN_MOTION_DOT":0.00039494,"MEAN_MOTION_DDOT":0},{"OBJECT_NAME":"TITAN 4B R\/B","OBJECT_ID":"2005-016B","EPOCH":"2026-03-09T20:27:57.848832","MEAN_MOTION":15.42682045,"ECCENTRICITY":0.00616552,"INCLINATION":56.9964,"RA_OF_ASC_NODE":245.9411,"ARG_OF_PERICENTER":20.2929,"MEAN_ANOMALY":340.0555,"EPHEMERIS_TYPE":0,"CLASSIFICATION_TYPE":"U","NORAD_CAT_ID":28647,"ELEMENT_SET_NO":999,"REV_AT_EPOCH":37707,"BSTAR":0.00046483736,"MEAN_MOTION_DOT":0.0002164,"MEAN_MOTION_DDOT":0}]
